FENGYUN 1C DEB          
1 31248U 99025BME 17344.17705010  .00000205  00000-0  19691-3 0  9999
2 31248  99.4288 328.3179 0114103 244.7871 174.2219 13.89183550541858
